NORAD_CAT_ID,OBJECT_NAME,OBJECT_TYPE,EPOCH,MEAN_MOTION,ECCENTRICITY,INCLINATION,RA_OF_ASC_NODE,ARG_OF_PERICENTER,MEAN_ANOMALY,BSTAR,MEAN_MOTION_DOT,MEAN_MOTION_DDOT,TLE_LINE0,TLE_LINE1,TLE_LINE2,SEMIMAJOR_AXIS,PERIOD,APOGEE,PERIGEE,DECAYED
51775.0,STARLINK-3620,PAYLOAD,2023-12-26 02:53:28,15.08834192,0.0001563,53.2167,350.9771,70.8243,289.2919,1.1105e-05,-1.11e-06,0.0,0 STARLINK-3620,1 51775U 22017H   23360.12046353 -.00000111  00000-0  11105-4 0  9991,2 51775  53.2167 350.9771 0001563  70.8243 289.2919 15.08834192102590,6917.898,95.438,540.844,538.682,0.0
51775.0,STARLINK-3620,PAYLOAD,2023-12-26 06:04:14,15.08835305,0.0001525,53.2171,350.3821,81.9674,278.1491,3.2897e-05,2.36e-06,0.0,0 STARLINK-3620,1 51775U 22017H   23360.25294310  .00000236  00000-0  32897-4 0  9991,2 51775  53.2171 350.3821 0001525  81.9674 278.1491 15.08835305101165,6917.895,95.438,540.815,538.705,0.0
51775.0,STARLINK-3620,PAYLOAD,2023-12-27 02:44:14,15.08845406,0.0001554,53.2176,346.5174,89.0166,271.1005,0.00013554,1.87e-05,0.0,0 STARLINK-3620,1 51775U 22017H   23361.11405911  .00001870  00000-0  13554-3 0  9991,2 51775  53.2176 346.5174 0001554  89.0166 271.1005 15.08845406102747,6917.864,95.437,540.804,538.654,0.0
51775.0,STARLINK-3620,PAYLOAD,2023-12-27 09:05:46,15.08853901,0.00016,53.2166,345.3253,86.1722,273.9453,0.00029259,4.373e-05,0.0,0 STARLINK-3620,1 51775U 22017H   23361.37901464  .00004373  00000-0  29259-3 0  9993,2 51775  53.2166 345.3253 0001600  86.1722 273.9453 15.08853901101339,6917.838,95.437,540.81,538.596,0.0
51775.0,STARLINK-3620,PAYLOAD,2023-12-28 04:10:25,15.08836745,0.0001681,53.2162,341.7502,113.4662,246.6507,0.0003477,5.249e-05,0.0,0 STARLINK-3620,1 51775U 22017H   23362.17390330  .00005249  00000-0  34770-3 0  9993,2 51775  53.2162 341.7502 0001681 113.4662 246.6507 15.08836745102906,6917.89,95.438,540.918,538.592,0.0
51775.0,STARLINK-3620,PAYLOAD,2023-12-28 05:45:48,15.08842211,0.0001493,53.2169,341.4602,93.189,266.9273,0.00020987,3.054e-05,0.0,0 STARLINK-3620,1 51775U 22017H   23362.24014172  .00003054  00000-0  20987-3 0  9995,2 51775  53.2169 341.4602 0001493  93.1890 266.9273 15.08842211101469,6917.874,95.437,540.771,538.706,0.0
51775.0,STARLINK-3620,PAYLOAD,2023-12-29 04:01:12,15.08837348,0.000152,53.2171,337.2944,100.3572,259.7592,-3.0436e-05,-7.72e-06,0.0,0 STARLINK-3620,1 51775U 22017H   23363.16750299 -.00000772  00000-0 -30436-4 0  9991,2 51775  53.2171 337.2944 0001520 100.3572 259.7592 15.08837348103059,6917.888,95.438,540.805,538.702,0.0
51775.0,STARLINK-3620,PAYLOAD,2023-12-30 07:02:45,15.08851615,0.0001524,53.2174,332.2411,104.0536,256.0625,0.0002588,3.834e-05,0.0,0 STARLINK-3620,1 51775U 22017H   23364.29357807  .00003834  00000-0  25880-3 0  9990,2 51775  53.2174 332.2411 0001524 104.0536 256.0625 15.08851615103220,6917.845,95.437,540.764,538.656,0.0
51775.0,STARLINK-3620,PAYLOAD,2023-12-31 03:42:46,15.08838566,0.0002221,53.2182,328.3814,136.0697,224.0472,6.8573e-05,8.03e-06,0.0,0 STARLINK-3620,1 51775U 22017H   23365.15470418  .00000803  00000-0  68573-4 0  9990,2 51775  53.2182 328.3814 0002221 136.0697 224.0472 15.08838566103359,6917.885,95.438,541.286,538.213,0.0
51775.0,STARLINK-3620,PAYLOAD,2023-12-31 06:53:32,15.08839224,0.000154,53.2181,327.7796,83.0068,277.1099,8.1247e-05,1.005e-05,0.0,0 STARLINK-3620,1 51775U 22017H   23365.28718681  .00001005  00000-0  81247-4 0  9999,2 51775  53.2181 327.7796 0001540  83.0068 277.1099 15.08839224101923,6917.883,95.438,540.813,538.682,0.0
51775.0,STARLINK-3620,PAYLOAD,2024-01-01 03:33:33,15.08840879,0.0001506,53.2175,323.9167,80.3449,279.7713,8.6451e-05,1.088e-05,0.0,0 STARLINK-3620,1 51775U 22017H   24001.14830843  .00001088  00000-0  86451-4 0  9990,2 51775  53.2175 323.9167 0001506  80.3449 279.7713 15.08840879103506,6917.878,95.437,540.785,538.701,0.0
51775.0,STARLINK-3620,PAYLOAD,2024-01-01 06:44:19,15.0884755,0.0001543,53.2179,323.3194,80.3511,279.7655,0.0002185,3.192e-05,0.0,0 STARLINK-3620,1 51775U 22017H   24001.28078597  .00003192  00000-0  21850-3 0  9994,2 51775  53.2179 323.3194 0001543  80.3511 279.7655 15.08847550102074,6917.857,95.437,540.79,538.655,0.0
51775.0,STARLINK-3620,PAYLOAD,2024-01-02 06:35:07,15.08849253,0.0001938,53.2194,318.854,70.0358,290.0843,0.00032346,4.865e-05,0.0,0 STARLINK-3620,1 51775U 22017H   24002.27438782  .00004865  00000-0  32346-3 0  9990,2 51775  53.2194 318.8540 0001938  70.0358 290.0843 15.08849253103672,6917.852,95.437,541.058,538.376,0.0
51775.0,STARLINK-3620,PAYLOAD,2024-01-03 03:15:07,15.08846952,0.0001577,53.2183,314.9886,97.9943,262.1228,8.8266e-05,1.117e-05,0.0,0 STARLINK-3620,1 51775U 22017H   24003.13550338  .00001117  00000-0  88266-4 0  9998,2 51775  53.2183 314.9886 0001577  97.9943 262.1228 15.08846952103802,6917.859,95.437,540.815,538.633,0.0
51775.0,STARLINK-3620,PAYLOAD,2024-01-04 03:05:54,15.08842473,0.0001504,53.2173,310.527,92.3961,267.7203,-4.009e-05,-9.26e-06,0.0,0 STARLINK-3620,1 51775U 22017H   24004.12910569 -.00000926  00000-0 -40090-4 0  9996,2 51775  53.2173 310.5270 0001504  92.3961 267.7203 15.08842473103953,6917.873,95.437,540.778,538.697,0.0
51775.0,STARLINK-3620,PAYLOAD,2024-01-04 20:35:09,15.08828102,0.0001594,53.2188,307.2637,107.2962,252.8204,9.1014e-05,1.16e-05,0.0,0 STARLINK-3620,1 51775U 22017H   24004.85775453  .00001160  00000-0  91014-4 0  9998,2 51775  53.2188 307.2637 0001594 107.2962 252.8204 15.08828102104067,6917.917,95.438,540.884,538.679,0.0
51775.0,STARLINK-3620,PAYLOAD,2024-01-05 02:56:42,15.08838024,0.0001601,53.2187,306.0749,107.0352,253.0815,6.2295e-05,7.03e-06,0.0,0 STARLINK-3620,1 51775U 22017H   24005.12271005  .00000703  00000-0  62295-4 0  9994,2 51775  53.2187 306.0749 0001601 107.0352 253.0815 15.08838024104107,6917.886,95.438,540.859,538.644,0.0
51775.0,STARLINK-3620,PAYLOAD,2024-01-05 06:07:28,15.0884116,0.0001493,53.2182,305.4785,106.1453,253.9703,5.2911e-05,5.54e-06,0.0,0 STARLINK-3620,1 51775U 22017H   24005.25518828  .00000554  00000-0  52911-4 0  9993,2 51775  53.2182 305.4785 0001493 106.1453 253.9703 15.08841160102676,6917.877,95.437,540.775,538.709,0.0
51775.0,STARLINK-3620,PAYLOAD,2024-01-06 02:47:29,15.08829273,0.0001669,53.2184,301.6125,109.2593,250.858,0.00027165,4.037e-05,0.0,0 STARLINK-3620,1 51775U 22017H   24006.11631411  .00004037  00000-0  27165-3 0  9995,2 51775  53.2184 301.6125 0001669 109.2593 250.8580 15.08829273104254,6917.913,95.438,540.933,538.624,0.0
51775.0,STARLINK-3620,PAYLOAD,2024-01-07 04:13:39,15.08843399,0.0001501,53.2186,296.855,91.4402,268.6762,9.8014e-05,1.272e-05,0.0,0 STARLINK-3620,1 51775U 22017H   24007.17615213  .00001272  00000-0  98014-4 0  9994,2 51775  53.2186 296.8550 0001501  91.4402 268.6762 15.08843399104411,6917.87,95.437,540.773,538.697,0.0
51775.0,STARLINK-3620,PAYLOAD,2024-01-08 04:04:26,15.08849733,0.0001543,53.219,292.3962,80.9137,279.203,0.00011489,1.541e-05,0.0,0 STARLINK-3620,1 51775U 22017H   24008.16974764  .00001541  00000-0  11489-3 0  9992,2 51775  53.2190 292.3962 0001543  80.9137 279.2030 15.08849733103118,6917.851,95.437,540.783,538.648,0.0
51775.0,STARLINK-3620,PAYLOAD,2024-01-09 03:55:13,15.08847594,0.0001446,53.2183,287.9332,94.6204,265.4954,8.6059e-05,1.082e-05,0.0,0 STARLINK-3620,1 51775U 22017H   24009.16334858  .00001082  00000-0  86059-4 0  9993,2 51775  53.2183 287.9332 0001446  94.6204 265.4954 15.08847594104712,6917.857,95.437,540.722,538.722,0.0
51775.0,STARLINK-3620,PAYLOAD,2024-01-09 18:13:41,15.08846872,0.0001413,53.2166,285.258,90.6487,269.4668,-3.717e-06,-3.47e-06,0.0,0 STARLINK-3620,1 51775U 22017H   24009.75951206 -.00000347  00000-0 -37170-5 0  9996,2 51775  53.2166 285.2580 0001413  90.6487 269.4668 15.08846872104806,6917.859,95.437,540.702,538.747,0.0
51775.0,STARLINK-3620,PAYLOAD,2024-01-10 00:35:13,15.08850984,0.0001452,53.2159,284.0711,86.471,273.6448,2.7806e-05,1.55e-06,0.0,0 STARLINK-3620,1 51775U 22017H   24010.02446586  .00000155  00000-0  27806-4 0  9997,2 51775  53.2159 284.0711 0001452  86.4710 273.6448 15.08850984104842,6917.847,95.437,540.716,538.707,0.0
51775.0,STARLINK-3620,PAYLOAD,2024-01-10 18:04:29,15.08839187,0.000165,53.2168,280.8038,80.3081,279.8098,2.2883e-05,7.6e-07,0.0,0 STARLINK-3620,1 51775U 22017H   24010.75311665  .00000076  00000-0  22883-4 0  9998,2 51775  53.2168 280.8038 0001650  80.3081 279.8098 15.08839187104955,6917.883,95.438,540.889,538.606,0.0
51775.0,STARLINK-3620,PAYLOAD,2024-01-11 03:36:47,15.08839667,0.0001483,53.2168,279.0119,90.8183,269.2979,2.4129e-05,9.6e-07,0.0,0 STARLINK-3620,1 51775U 22017H   24011.15055510  .00000096  00000-0  24129-4 0  9994,2 51775  53.2168 279.0119 0001483  90.8183 269.2979 15.08839667103568,6917.881,95.438,540.772,538.72,0.0
51775.0,STARLINK-3620,PAYLOAD,2024-01-11 21:06:02,15.08847114,0.000149,53.2175,275.7412,100.0737,260.0423,1.3238e-05,-7.7e-07,0.0,0 STARLINK-3620,1 51775U 22017H   24011.87919067 -.00000077  00000-0  13238-4 0  9998,2 51775  53.2175 275.7412 0001490 100.0737 260.0423 15.08847114103673,6917.859,95.437,540.754,538.693,0.0
51775.0,STARLINK-3620,PAYLOAD,2024-01-12 00:16:47,15.08853792,0.0001709,53.2177,275.146,104.6371,255.481,6.8866e-05,8.08e-06,0.0,0 STARLINK-3620,1 51775U 22017H   24012.01166476  .00000808  00000-0  68866-4 0  9991,2 51775  53.2177 275.1460 0001709 104.6371 255.4810 15.08853792105140,6917.838,95.437,540.885,538.521,0.0
51775.0,STARLINK-3620,PAYLOAD,2024-01-12 16:10:40,15.08834062,0.0001873,53.2176,272.1727,119.2057,240.9123,5.2673e-05,5.5e-06,0.0,0 STARLINK-3620,1 51775U 22017H   24012.67407938  .00000550  00000-0  52673-4 0  9997,2 51775  53.2176 272.1727 0001873 119.2057 240.9123 15.08834062105243,6917.899,95.438,541.059,538.468,0.0
51775.0,STARLINK-3620,PAYLOAD,2024-01-12 22:32:13,15.0883482,0.0001814,53.2176,270.9835,117.7381,242.3795,5.4969e-05,5.87e-06,0.0,0 STARLINK-3620,1 51775U 22017H   24012.93903984  .00000587  00000-0  54969-4 0  9998,2 51775  53.2176 270.9835 0001814 117.7381 242.3795 15.08834820103833,6917.896,95.438,541.016,538.506,0.0
